start=new Date('2022-04-06T00:00:00.000Z').valueOf();
sats=[{"EPHEMERIS_TYPE":"0","REV_AT_EPOCH":"6071","CLASSIFICATION_TYPE":"U","MEAN_MOTION_DOT":"0.00022588","TIME_SYSTEM":"UTC","RCS_SIZE":"LARGE","BSTAR":"0.00152960000000","ELEMENT_SET_NO":"999","CENTER_NAME":"EARTH","REF_FRAME":"TEME","MEAN_ANOMALY":"308.8545","PERIOD":"95.591","ARG_OF_PERICENTER":"51.2583","MEAN_MOTION":"15.06420649","GP_ID":"200544016","DECAY_DATE":null,"OBJECT_NAME":"STARLINK-2420","ECCENTRICITY":"0.00015520","SITE":"AFETR","SEMIMAJOR_AXIS":"6925.285","OBJECT_ID":"2021-018AW","NORAD_CAT_ID":"47831","OBJECT_TYPE":"PAYLOAD","PERIAPSIS":"546.075","LAUNCH_DATE":"2021-03-11","APOAPSIS":"548.225","MEAN_ELEMENT_THEORY":"SGP4","FILE":"3389912","COUNTRY_CODE":"US","TLE_LINE2":"2 47831  53.0579 194.2716 0001552  51.2583 308.8545 15.06420649 60715","TLE_LINE1":"1 47831U 21018AW  22095.64881491  .00022588  00000-0  15296-2 0  9994","MEAN_MOTION_DDOT":"0.0000000000000","INCLINATION":"53.0579","RA_OF_ASC_NODE":"194.2716","EPOCH":"2022-04-05T15:34:17.608224"},{"TIME_SYSTEM":"UTC","RCS_SIZE":"LARGE","MEAN_MOTION_DOT":"0.00006161","REV_AT_EPOCH":"6047","EPHEMERIS_TYPE":"0","CLASSIFICATION_TYPE":"U","ELEMENT_SET_NO":"999","CENTER_NAME":"EARTH","BSTAR":"0.00043195000000","GP_ID":"200543264","MEAN_MOTION":"15.06415391","PERIOD":"95.591","MEAN_ANOMALY":"294.6754","ARG_OF_PERICENTER":"65.4373","REF_FRAME":"TEME","SITE":"AFETR","SEMIMAJOR_AXIS":"6925.301","OBJECT_ID":"2021-018AX","ECCENTRICITY":"0.00013280","DECAY_DATE":null,"OBJECT_NAME":"STARLINK-2422","LAUNCH_DATE":"2021-03-11","PERIAPSIS":"546.247","OBJECT_TYPE":"PAYLOAD","NORAD_CAT_ID":"47832","COUNTRY_CODE":"US","MEAN_ELEMENT_THEORY":"SGP4","FILE":"3389912","APOAPSIS":"548.086","INCLINATION":"53.0534","MEAN_MOTION_DDOT":"0.0000000000000","TLE_LINE2":"2 47832  53.0534 208.5905 0001328  65.4373 294.6754 15.06415391 60476","TLE_LINE1":"1 47832U 21018AX  22095.80406554  .00006161  00000-0  43195-3 0  9995","EPOCH":"2022-04-05T19:17:51.262656","RA_OF_ASC_NODE":"208.5905"},{"EPOCH":"2022-04-05T16:43:55.411968","RA_OF_ASC_NODE":"209.0756","INCLINATION":"53.0535","TLE_LINE2":"2 47833  53.0535 209.0756 0001596  52.8242 307.2893 15.06409188 60517","TLE_LINE1":"1 47833U 21018AY  22095.69716912  .00009043  00000-0  62508-3 0  9996","MEAN_MOTION_DDOT":"0.0000000000000","COUNTRY_CODE":"US","FILE":"3389912","MEAN_ELEMENT_THEORY":"SGP4","APOAPSIS":"548.291","LAUNCH_DATE":"2021-03-11","PERIAPSIS":"546.080","OBJECT_TYPE":"PAYLOAD","NORAD_CAT_ID":"47833","SEMIMAJOR_AXIS":"6925.320","SITE":"AFETR","OBJECT_ID":"2021-018AY","ECCENTRICITY":"0.00015960","DECAY_DATE":null,"OBJECT_NAME":"STARLINK-2423","GP_ID":"200543514","MEAN_MOTION":"15.06409188","PERIOD":"95.592","MEAN_ANOMALY":"307.2893","ARG_OF_PERICENTER":"52.8242","REF_FRAME":"TEME","ELEMENT_SET_NO":"999","CENTER_NAME":"EARTH","BSTAR":"0.00062508000000","TIME_SYSTEM":"UTC","RCS_SIZE":"LARGE","MEAN_MOTION_DOT":"0.00009043","REV_AT_EPOCH":"6051","EPHEMERIS_TYPE":"0","CLASSIFICATION_TYPE":"U"},{"NORAD_CAT_ID":"47834","OBJECT_TYPE":"PAYLOAD","PERIAPSIS":"546.075","LAUNCH_DATE":"2021-03-11","APOAPSIS":"548.406","MEAN_ELEMENT_THEORY":"SGP4","FILE":"3389912","COUNTRY_CODE":"US","TLE_LINE2":"2 47834  53.0529 209.0176 0001683  63.0095 297.1066 15.06391100 60517","TLE_LINE1":"1 47834U 21018AZ  22095.70824041  .00003213  00000-0  23457-3 0  9995","MEAN_MOTION_DDOT":"0.0000000000000","INCLINATION":"53.0529","RA_OF_ASC_NODE":"209.0176","EPOCH":"2022-04-05T16:59:51.971424","CLASSIFICATION_TYPE":"U","EPHEMERIS_TYPE":"0","REV_AT_EPOCH":"6051","MEAN_MOTION_DOT":"0.00003213","RCS_SIZE":"LARGE","TIME_SYSTEM":"UTC","BSTAR":"0.00023457000000","CENTER_NAME":"EARTH","ELEMENT_SET_NO":"999","REF_FRAME":"TEME","MEAN_ANOMALY":"297.1066","PERIOD":"95.593","ARG_OF_PERICENTER":"63.0095","MEAN_MOTION":"15.06391100","GP_ID":"200543766","OBJECT_NAME":"STARLINK-2424","DECAY_DATE":null,"ECCENTRICITY":"0.00016830","OBJECT_ID":"2021-018AZ","SEMIMAJOR_AXIS":"6925.376","SITE":"AFETR"},{"CENTER_NAME":"EARTH","ELEMENT_SET_NO":"999","BSTAR":"0.00088500000000","RCS_SIZE":"LARGE","TIME_SYSTEM":"UTC","MEAN_MOTION_DOT":"0.00012933","CLASSIFICATION_TYPE":"U","EPHEMERIS_TYPE":"0","REV_AT_EPOCH":"6039","OBJECT_ID":"2021-018BA","SEMIMAJOR_AXIS":"6925.276","SITE":"AFETR","ECCENTRICITY":"0.00015400","OBJECT_NAME":"STARLINK-2425","DECAY_DATE":null,"GP_ID":"200544516","MEAN_MOTION":"15.06423553","PERIOD":"95.591","ARG_OF_PERICENTER":"52.7329","MEAN_ANOMALY":"307.3801","REF_FRAME":"TEME","COUNTRY_CODE":"US","MEAN_ELEMENT_THEORY":"SGP4","FILE":"3389912","APOAPSIS":"548.208","PERIAPSIS":"546.075","LAUNCH_DATE":"2021-03-11","OBJECT_TYPE":"PAYLOAD","NORAD_CAT_ID":"47835","EPOCH":"2022-04-05T18:57:15.783264","RA_OF_ASC_NODE":"213.6411","INCLINATION":"53.0515","TLE_LINE2":"2 47835  53.0515 213.6411 0001540  52.7329 307.3801 15.06423553 60398","MEAN_MOTION_DDOT":"0.0000000000000","TLE_LINE1":"1 47835U 21018BA  22095.78976601  .00012933  00000-0  88500-3 0  9993"},{"MEAN_MOTION_DOT":"0.00013619","TIME_SYSTEM":"UTC","RCS_SIZE":"LARGE","REV_AT_EPOCH":"6046","EPHEMERIS_TYPE":"0","CLASSIFICATION_TYPE":"U","BSTAR":"0.00093071000000","ELEMENT_SET_NO":"999","CENTER_NAME":"EARTH","MEAN_MOTION":"15.06428809","GP_ID":"200542765","REF_FRAME":"TEME","MEAN_ANOMALY":"298.4766","PERIOD":"95.590","ARG_OF_PERICENTER":"61.6400","ECCENTRICITY":"0.00017550","SEMIMAJOR_AXIS":"6925.260","SITE":"AFETR","OBJECT_ID":"2021-018BB","DECAY_DATE":null,"OBJECT_NAME":"STARLINK-2426","PERIAPSIS":"545.910","LAUNCH_DATE":"2021-03-11","NORAD_CAT_ID":"47836","OBJECT_TYPE":"PAYLOAD","MEAN_ELEMENT_THEORY":"SGP4","FILE":"3389912","COUNTRY_CODE":"US","APOAPSIS":"548.341","MEAN_MOTION_DDOT":"0.0000000000000","TLE_LINE2":"2 47836  53.0539 208.9730 0001755  61.6400 298.4766 15.06428809 60460","TLE_LINE1":"1 47836U 21018BB  22095.71833809  .00013619  00000-0  93071-3 0  9990","INCLINATION":"53.0539","RA_OF_ASC_NODE":"208.9730","EPOCH":"2022-04-05T17:14:24.410976"},{"MEAN_MOTION_DOT":"0.00014077","TIME_SYSTEM":"UTC","RCS_SIZE":"LARGE","EPHEMERIS_TYPE":"0","REV_AT_EPOCH":"6075","CLASSIFICATION_TYPE":"U","BSTAR":"0.00096179000000","ELEMENT_SET_NO":"999","CENTER_NAME":"EARTH","MEAN_MOTION":"15.06410802","GP_ID":"200543015","REF_FRAME":"TEME","PERIOD":"95.591","MEAN_ANOMALY":"313.0344","ARG_OF_PERICENTER":"47.0811","ECCENTRICITY":"0.00019780","SEMIMAJOR_AXIS":"6925.315","SITE":"AFETR","OBJECT_ID":"2021-018BC","DECAY_DATE":null,"OBJECT_NAME":"STARLINK-2427","PERIAPSIS":"545.811","LAUNCH_DATE":"2021-03-11","NORAD_CAT_ID":"47837","OBJECT_TYPE":"PAYLOAD","FILE":"3389912","MEAN_ELEMENT_THEORY":"SGP4","COUNTRY_CODE":"US","APOAPSIS":"548.550","TLE_LINE1":"1 47837U 21018BC  22095.73589939  .00014077  00000-0  96179-3 0  9996","TLE_LINE2":"2 47837  53.0524 188.8967 0001978  47.0811 313.0344 15.06410802 60756","MEAN_MOTION_DDOT":"0.0000000000000","INCLINATION":"53.0524","RA_OF_ASC_NODE":"188.8967","EPOCH":"2022-04-05T17:39:41.707296"},{"DECAY_DATE":null,"OBJECT_NAME":"STARLINK-2429","ECCENTRICITY":"0.00015140","SEMIMAJOR_AXIS":"6925.349","SITE":"AFETR","OBJECT_ID":"2021-018BD","REF_FRAME":"TEME","PERIOD":"95.592","MEAN_ANOMALY":"303.5164","ARG_OF_PERICENTER":"56.5970","MEAN_MOTION":"15.06399912","GP_ID":"200544266","BSTAR":"0.00009000700000","ELEMENT_SET_NO":"999","CENTER_NAME":"EARTH","EPHEMERIS_TYPE":"0","REV_AT_EPOCH":"6047","CLASSIFICATION_TYPE":"U","MEAN_MOTION_DOT":"0.00001059","TIME_SYSTEM":"UTC","RCS_SIZE":"LARGE","RA_OF_ASC_NODE":"208.5322","EPOCH":"2022-04-05T19:33:47.367648","TLE_LINE2":"2 47838  53.0542 208.5322 0001514  56.5970 303.5164 15.06399912 60470","MEAN_MOTION_DDOT":"0.0000000000000","TLE_LINE1":"1 47838U 21018BD  22095.81513157  .00001059  00000-0  90007-4 0  9996","INCLINATION":"53.0542","APOAPSIS":"548.262","FILE":"3389912","MEAN_ELEMENT_THEORY":"SGP4","COUNTRY_CODE":"US","NORAD_CAT_ID":"47838","OBJECT_TYPE":"PAYLOAD","PERIAPSIS":"546.165","LAUNCH_DATE":"2021-03-11"},{"TLE_LINE2":"2 47839  53.0526 179.2862 0001430  63.9909 296.1227 15.06414768 60886","MEAN_MOTION_DDOT":"0.0000000000000","TLE_LINE1":"1 47839U 21018BE  22095.64464610  .00009860  00000-0  67964-3 0  9990","INCLINATION":"53.0526","RA_OF_ASC_NODE":"179.2862","EPOCH":"2022-04-05T15:28:17.423040","NORAD_CAT_ID":"47839","OBJECT_TYPE":"PAYLOAD","LAUNCH_DATE":"2021-03-11","PERIAPSIS":"546.178","APOAPSIS":"548.159","MEAN_ELEMENT_THEORY":"SGP4","FILE":"3389912","COUNTRY_CODE":"US","REF_FRAME":"TEME","PERIOD":"95.591","MEAN_ANOMALY":"296.1227","ARG_OF_PERICENTER":"63.9909","MEAN_MOTION":"15.06414768","GP_ID":"200544017","OBJECT_NAME":"STARLINK-2431","DECAY_DATE":null,"ECCENTRICITY":"0.00014300","OBJECT_ID":"2021-018BE","SEMIMAJOR_AXIS":"6925.303","SITE":"AFETR","CLASSIFICATION_TYPE":"U","REV_AT_EPOCH":"6088","EPHEMERIS_TYPE":"0","MEAN_MOTION_DOT":"0.00009860","RCS_SIZE":"LARGE","TIME_SYSTEM":"UTC","BSTAR":"0.00067964000000","CENTER_NAME":"EARTH","ELEMENT_SET_NO":"999"},{"TIME_SYSTEM":"UTC","RCS_SIZE":"LARGE","MEAN_MOTION_DOT":"0.00013766","EPHEMERIS_TYPE":"0","REV_AT_EPOCH":"6074","CLASSIFICATION_TYPE":"U","ELEMENT_SET_NO":"999","CENTER_NAME":"EARTH","BSTAR":"0.00094047000000","GP_ID":"200543265","MEAN_MOTION":"15.06429778","MEAN_ANOMALY":"311.4309","PERIOD":"95.590","ARG_OF_PERICENTER":"48.6812","REF_FRAME":"TEME","SITE":"AFETR","SEMIMAJOR_AXIS":"6925.257","OBJECT_ID":"2021-018BF","ECCENTRICITY":"0.00015380","DECAY_DATE":null,"OBJECT_NAME":"STARLINK-2432","PERIAPSIS":"546.057","LAUNCH_DATE":"2021-03-11","OBJECT_TYPE":"PAYLOAD","NORAD_CAT_ID":"47840","COUNTRY_CODE":"US","MEAN_ELEMENT_THEORY":"SGP4","FILE":"3389912","APOAPSIS":"548.187","INCLINATION":"53.0535","TLE_LINE2":"2 47840  53.0535 188.9541 0001538  48.6812 311.4309 15.06429778 60745","TLE_LINE1":"1 47840U 21018BF  22095.72113627  .00013766  00000-0  94047-3 0  9992","MEAN_MOTION_DDOT":"0.0000000000000","EPOCH":"2022-04-05T17:18:26.173728","RA_OF_ASC_NODE":"188.9541"}];
